[{"OBJECT_NAME":"NUSAT-44 (MARIA MITCHELL)","OBJECT_ID":"2024-043AA","EPOCH":"2026-03-09T22:12:18.524160","MEAN_MOTION":15.29764305,"ECCENTRICITY":0.0007331,"INCLINATION":97.5299,"RA_OF_ASC_NODE":207.7691,"ARG_OF_PERICENTER":214.9017,"MEAN_ANOMALY":145.1743,"EPHEMERIS_TYPE":0,"CLASSIFICATION_TYPE":"U","NORAD_CAT_ID":59122,"ELEMENT_SET_NO":999,"REV_AT_EPOCH":11209,"BSTAR":0.00061063193,"MEAN_MOTION_DOT":0.00017562,"MEAN_MOTION_DDOT":0},{"OBJECT_NAME":"STARLINK-32957","OBJECT_ID":"2025-039W","EPOCH":"2026-03-09T05:21:47.524608","MEAN_MOTION":15.27589918,"ECCENTRICITY":0.0001771,"INCLINATION":43.0055,"RA_OF_ASC_NODE":15.5747,"ARG_OF_PERICENTER":252.6992,"MEAN_ANOMALY":107.3666,"EPHEMERIS_TYPE":0,"CLASSIFICATION_TYPE":"U","NORAD_CAT_ID":63124,"ELEMENT_SET_NO":999,"REV_AT_EPOCH":5799,"BSTAR":0.00096056078,"MEAN_MOTION_DOT":0.00026273,"MEAN_MOTION_DDOT":0}]
